STARLINK-1125
1 24950C 20001AN  21325.11232962 -.00001289  00000-0 -86401-4 0  3252
2 24950  53.0518 172.7309 0002105  74.2757 146.5105 15.06385584    13
